{
  "type": "FeatureCollection",
  "features": [
    {
      "type": "Feature",
      "properties": {
        "norad_id": 19071,
        "name": "OSCAR 32",
        "group": "nnss",
        "lat": -24.949928345266944,
        "lon": -163.77685655549453,
        "alt_km": 1030.7882981392977,
        "timestamp": "2025-12-07T20:38:14.332552+00:00",
        "meta_object_name": "OSCAR 32",
        "meta_object_id": "1988-033B",
        "meta_epoch": "2025-12-07T00:02:44.266272",
        "meta_mean_motion": 13.27952912,
        "meta_eccentricity": 0.01878765,
        "meta_inclination": 90.3222,
        "meta_ra_of_asc_node": 16.3463,
        "meta_arg_of_pericenter": 182.7412,
        "meta_mean_anomaly": 241.8891,
        "meta_ephemeris_type": 0,
        "meta_classification_type": "U",
        "meta_norad_cat_id": 19071,
        "meta_element_set_no": 999,
        "meta_rev_at_epoch": 82189,
        "meta_bstar": 0.00019386039,
        "meta_mean_motion_dot": 1.05e-06,
        "meta_mean_motion_ddot": 0,
        "tle_line1": "1 19071U 88033B   25341.00190123  .00000105  00000+0  19386-3 0  9996",
        "tle_line2": "2 19071  90.3222  16.3463 0187876 182.7412 241.8891 13.27952912821895"
      },
      "geometry": {
        "type": "Point",
        "coordinates": [
          -163.77685655549453,
          -24.949928345266944
        ]
      }
    },
    {
      "type": "Feature",
      "properties": {
        "norad_id": 19223,
        "name": "NOVA 2",
        "group": "nnss",
        "lat": 50.36579304123168,
        "lon": -101.73716038340012,
        "alt_km": 1172.765079235748,
        "timestamp": "2025-12-07T20:38:14.332562+00:00",
        "meta_object_name": "NOVA 2",
        "meta_object_id": "1988-052A",
        "meta_epoch": "2025-12-07T05:36:18.839232",
        "meta_mean_motion": 13.22935007,
        "meta_eccentricity": 0.0031038,
        "meta_inclination": 89.9871,
        "meta_ra_of_asc_node": 78.2792,
        "meta_arg_of_pericenter": 31.766,
        "meta_mean_anomaly": 356.2071,
        "meta_ephemeris_type": 0,
        "meta_classification_type": "U",
        "meta_norad_cat_id": 19223,
        "meta_element_set_no": 999,
        "meta_rev_at_epoch": 80875,
        "meta_bstar": 0.00031111275,
        "meta_mean_motion_dot": 1.4e-06,
        "meta_mean_motion_ddot": 0,
        "tle_line1": "1 19223U 88052A   25341.23355138  .00000140  00000+0  31111-3 0  9999",
        "tle_line2": "2 19223  89.9871  78.2792 0031038  31.7660 356.2071 13.22935007808758"
      },
      "geometry": {
        "type": "Point",
        "coordinates": [
          -101.73716038340012,
          50.36579304123168
        ]
      }
    },
    {
      "type": "Feature",
      "properties": {
        "norad_id": 19419,
        "name": "OSCAR 25",
        "group": "nnss",
        "lat": -39.423957553604176,
        "lon": -159.80078123421652,
        "alt_km": 1052.3221097908927,
        "timestamp": "2025-12-07T20:38:14.332572+00:00",
        "meta_object_name": "OSCAR 25",
        "meta_object_id": "1988-074A",
        "meta_epoch": "2025-12-07T03:31:09.598368",
        "meta_mean_motion": 13.42621772,
        "meta_eccentricity": 0.00942661,
        "meta_inclination": 90.0351,
        "meta_ra_of_asc_node": 20.2256,
        "meta_arg_of_pericenter": 262.0834,
        "meta_mean_anomaly": 112.5363,
        "meta_ephemeris_type": 0,
        "meta_classification_type": "U",
        "meta_norad_cat_id": 19419,
        "meta_element_set_no": 999,
        "meta_rev_at_epoch": 82565,
        "meta_bstar": 0.0002591724,
        "meta_mean_motion_dot": 1.59e-06,
        "meta_mean_motion_ddot": 0,
        "tle_line1": "1 19419U 88074A   25341.14663887  .00000159  00000+0  25917-3 0  9990",
        "tle_line2": "2 19419  90.0351  20.2256 0094266 262.0834 112.5363 13.42621772825655"
      },
      "geometry": {
        "type": "Point",
        "coordinates": [
          -159.80078123421652,
          -39.423957553604176
        ]
      }
    },
    {
      "type": "Feature",
      "properties": {
        "norad_id": 19420,
        "name": "OSCAR 31",
        "group": "nnss",
        "lat": 76.02637165155477,
        "lon": -159.27463766020006,
        "alt_km": 1152.4867093831017,
        "timestamp": "2025-12-07T20:38:14.332582+00:00",
        "meta_object_name": "OSCAR 31",
        "meta_object_id": "1988-074B",
        "meta_epoch": "2025-12-07T02:22:05.956320",
        "meta_mean_motion": 13.42583263,
        "meta_eccentricity": 0.00925318,
        "meta_inclination": 90.0368,
        "meta_ra_of_asc_node": 20.5746,
        "meta_arg_of_pericenter": 256.3306,
        "meta_mean_anomaly": 131.1736,
        "meta_ephemeris_type": 0,
        "meta_classification_type": "U",
        "meta_norad_cat_id": 19420,
        "meta_element_set_no": 999,
        "meta_rev_at_epoch": 82575,
        "meta_bstar": 0.00022226093,
        "meta_mean_motion_dot": 1.37e-06,
        "meta_mean_motion_ddot": 0,
        "tle_line1": "1 19420U 88074B   25341.09868005  .00000137  00000+0  22226-3 0  9991",
        "tle_line2": "2 19420  90.0368  20.5746 0092531 256.3306 131.1736 13.42583263825759"
      },
      "geometry": {
        "type": "Point",
        "coordinates": [
          -159.27463766020006,
          76.02637165155477
        ]
      }
    }
  ]
}